OBJECT_NAME,OBJECT_ID,EPOCH,MEAN_MOTION,ECCENTRICITY,INCLINATION,RA_OF_ASC_NODE,ARG_OF_PERICENTER,MEAN_ANOMALY,EPHEMERIS_TYPE,CLASSIFICATION_TYPE,NORAD_CAT_ID,ELEMENT_SET_NO,REV_AT_EPOCH,BSTAR,MEAN_MOTION_DOT,MEAN_MOTION_DDOT
COSMO-SKYMED 1,2007-023A,2026-07-02T18:35:16.988352,14.97177651,.0001335,97.8852,15.7619,82.8332,277.3041,0,U,31598,999,3212,.18604E-3,.209E-4,0
COSMOS 2428,2007-029A,2026-07-02T15:33:07.629408,14.12928860,.0007127,70.9379,322.0146,105.4417,254.7492,0,U,31792,999,98033,.63924E-4,.71E-6,0
SL-16 R/B,2007-029B,2026-07-02T18:05:28.438368,14.14852771,.0002377,70.9765,290.5058,261.4453,260.0962,0,U,31793,999,98164,-.96398E-4,-.234E-5,0
CZ-2C R/B,2011-030B,2026-07-02T15:55:57.676800,14.81510183,.005171,97.8662,138.7715,337.7692,195.0727,0,U,37731,999,80711,.18512E-3,.143E-4,0
H-2A R/B,2012-025E,2026-07-02T16:14:42.899424,14.95792266,.0042395,98.4833,160.1003,297.1892,62.5009,0,U,38341,999,76540,.30835E-3,.3432E-4,0
SHIJIAN-16 (SJ-16),2013-057A,2026-07-02T18:57:01.588608,14.92636951,.0016334,74.9737,327.1303,194.4278,165.6447,0,U,39358,999,68867,.12301E-3,.1241E-4,0
SL-4 R/B,2014-021B,2026-07-02T03:54:54.965952,15.42247380,.00904952,51.6050,137.3882,160.6340,199.8121,0,U,39679,999,67392,.24823517E-3,.1214E-3,0
ALOS-2,2014-029A,2026-07-02T18:17:48.105312,14.79471987,.0001625,97.9231,280.7031,90.7515,269.3883,0,U,39766,999,65388,.17407E-3,.1249E-4,0
YAOGAN-29,2015-069A,2026-07-02T18:18:32.584032,14.83096582,.0001693,98.0017,212.4196,29.2888,330.8420,0,U,41038,999,57293,.42536E-4,.292E-5,0
ASTRO-H (HITOMI),2016-012A,2026-07-02T18:15:57.927168,15.10584580,.0009593,31.0004,333.6033,49.4068,310.7404,0,U,41337,999,56964,.18505E-3,.3229E-4,0
HXMT (HUIYAN),2017-034A,2026-07-02T18:56:19.656096,15.18594574,.003274,43.0144,96.1586,245.2757,114.4682,0,U,42758,999,50003,.25602E-3,.5225E-4,0
SAOCOM 1A,2018-076A,2026-07-02T19:09:49.720896,14.82159386,.0001528,97.8877,10.3196,79.5367,280.6018,0,U,43641,999,41841,.64137E-4,.458E-5,0
H-2A R/B,2018-084L,2026-07-02T17:34:27.475680,15.45765966,.002175,98.8551,66.0241,346.2519,13.8130,0,U,43682,999,42352,.44927E-3,.21852E-3,0
SAOCOM 1B,2020-059A,2026-07-02T18:17:33.198720,14.82152677,.0001619,97.8883,9.3796,81.6873,278.4523,0,U,46265,999,31579,.1171E-3,.88E-5,0
CSS (TIANHE),2021-035A,2026-07-02T01:47:33.745632,15.61404719,.00087824,41.4669,231.3605,197.5526,162.5011,0,U,48274,999,29549,.70551523E-4,.5862E-4,0
COSMOS 2550,2021-056A,2026-07-02T17:44:13.716096,15.33878585,.0008373,67.1427,52.8622,268.4460,91.5736,0,U,48865,999,28110,.18268E-3,.5832E-4,0
CZ-2C R/B,2022-058K,2026-07-02T17:16:13.390752,15.62969822,.003144,50.1859,82.6344,331.2702,28.6539,0,U,52794,999,22807,.41E-3,.38551E-3,0
CZ-2C R/B,2022-132E,2026-07-02T17:51:11.487744,15.73474922,.0012301,97.2893,191.4823,32.6928,327.5095,0,U,54039,999,20839,.51923E-3,.72758E-3,0
GSLV R/B,2022-138AN,2026-07-02T13:20:46.550976,14.97330402,.0024188,87.3815,127.8235,93.3808,267.0191,0,U,54149,999,20111,.24128E-3,.2844E-4,0
XRISM,2023-137A,2026-07-02T15:11:15.496800,15.12598210,.0007763,31.0015,259.5443,119.7608,240.3804,0,U,57800,999,15520,.28741E-3,.5244E-4,0
ACS3,2024-077B,2026-07-02T16:54:12.345120,13.94758402,.0108112,97.1705,99.0432,49.9893,311.0702,0,U,59588,999,11020,.26027E-1,.36756E-3,0
