COSMO-SKYMED 1          
1 31598U 07023A   26183.77450218  .00002090  00000+0  18604-3 0  9994
2 31598  97.8852  15.7619 0001335  82.8332 277.3041 14.97177651 32124
COSMOS 2428             
1 31792U 07029A   26183.64800497  .00000071  00000+0  63924-4 0  9993
2 31792  70.9379 322.0146 0007127 105.4417 254.7492 14.12928860980333
SL-16 R/B               
1 31793U 07029B   26183.75380137 -.00000234  00000+0 -96398-4 0  9994
2 31793  70.9765 290.5058 0002377 261.4453 260.0962 14.14852771981645
CZ-2C R/B               
1 37731U 11030B   26183.66386200  .00001430  00000+0  18512-3 0  9994
2 37731  97.8662 138.7715 0051710 337.7692 195.0727 14.81510183807114
H-2A R/B                
1 38341U 12025E   26183.67688541  .00003432  00000+0  30835-3 0  9997
2 38341  98.4833 160.1003 0042395 297.1892  62.5009 14.95792266765403
SHIJIAN-16 (SJ-16)      
1 39358U 13057A   26183.78960172  .00001241  00000+0  12301-3 0  9991
2 39358  74.9737 327.1303 0016334 194.4278 165.6447 14.92636951688672
SL-4 R/B                
1 39679U 14021B   26183.16313618  .00012140  00000+0  24824-3 0  9991
2 39679  51.6050 137.3882 0090495 160.6340 199.8121 15.42247380673926
ALOS-2                  
1 39766U 14029A   26183.76236233  .00001249  00000+0  17407-3 0  9996
2 39766  97.9231 280.7031 0001625  90.7515 269.3883 14.79471987653882
YAOGAN-29               
1 41038U 15069A   26183.76287713  .00000292  00000+0  42536-4 0  9994
2 41038  98.0017 212.4196 0001693  29.2888 330.8420 14.83096582572936
ASTRO-H (HITOMI)        
1 41337U 16012A   26183.76108712  .00003229  00000+0  18505-3 0  9997
2 41337  31.0004 333.6033 0009593  49.4068 310.7404 15.10584580569642
HXMT (HUIYAN)           
1 42758U 17034A   26183.78911639  .00005225  00000+0  25602-3 0  9996
2 42758  43.0144  96.1586 0032740 245.2757 114.4682 15.18594574500030
SAOCOM 1A               
1 43641U 18076A   26183.79849214  .00000458  00000+0  64137-4 0  9995
2 43641  97.8877  10.3196 0001528  79.5367 280.6018 14.82159386418419
H-2A R/B                
1 43682U 18084L   26183.73226245  .00021852  00000+0  44927-3 0  9991
2 43682  98.8551  66.0241 0021750 346.2519  13.8130 15.45765966423521
SAOCOM 1B               
1 46265U 20059A   26183.76218980  .00000880  00000+0  11710-3 0  9998
2 46265  97.8883   9.3796 0001619  81.6873 278.4523 14.82152677315791
CSS (TIANHE)            
1 48274U 21035A   26183.07469613  .00005862  00000+0  70552-4 0  9995
2 48274  41.4669 231.3605 0008782 197.5526 162.5011 15.61404719295490
COSMOS 2550             
1 48865U 21056A   26183.73904764  .00005832  00000+0  18268-3 0  9990
2 48865  67.1427  52.8622 0008373 268.4460  91.5736 15.33878585281102
CZ-2C R/B               
1 52794U 22058K   26183.71959943  .00038551  00000+0  41000-3 0  9990
2 52794  50.1859  82.6344 0031440 331.2702  28.6539 15.62969822228076
CZ-2C R/B               
1 54039U 22132E   26183.74388296  .00072758  00000+0  51923-3 0  9999
2 54039  97.2893 191.4823 0012301  32.6928 327.5095 15.73474922208393
GSLV R/B                
1 54149U 22138AN  26183.55609434  .00002844  00000+0  24128-3 0  9992
2 54149  87.3815 127.8235 0024188  93.3808 267.0191 14.97330402201113
XRISM                   
1 57800U 23137A   26183.63281825  .00005244  00000+0  28741-3 0  9990
2 57800  31.0015 259.5443 0007763 119.7608 240.3804 15.12598210155207
ACS3                    
1 59588U 24077B   26183.70430955  .00036756  00000+0  26027-1 0  9992
2 59588  97.1705  99.0432 0108112  49.9893 311.0702 13.94758402110209
